[
	{
		"name": "Carlton",
		"postcode": "3053"
	},
	{
		"name": "Carlton South"
	},
	{
		"name": "Carlton North",
		"postcode": "3054"
	},
	{
		"name": "Docklands",
		"postcode": "3008"
	},
	{
		"name": "East Melbourne",
		"postcode": "3002"
	},
	{
		"name": "Jolimont"
	},
	{
		"name": "Flemington",
		"postcode": "3031"
	},
	{
		"name": "Kensington",
		"postcode": "3031"
	},
	{
		"name": "Melbourne",
		"postcode": "3000"
	},
	{
		"name": "Melbourne",
		"postcode": "3004"
	},
	{
		"name": "North Melbourne",
		"postcode": "3051"
	},
	{
		"name": "Hotham Hill"
	},
	{
		"name": "Macaulay"
	},
	{
		"name": "Parkville",
		"postcode": "3052"
	},
	{
		"name": "Royal Park"
	},
	{
		"name": "Port Melbourne",
		"postcode": "3207"
	},
	{
		"name": "Fishermans Bend"
	},
	{
		"name": "Southbank",
		"postcode": "3006"
	},
	{
		"name": "South Wharf",
		"postcode": "3006"
	},
	{
		"name": "South Yarra",
		"postcode": "3141"
	},
	{
		"name": "West Melbourne",
		"postcode": "3003"
	},
	{
		"name": "Coode Island"
	},
	{
		"name": "Albert Park",
		"postcode": "3206"
	},
	{
		"name": "Balaclava",
		"postcode": "3183"
	},
	{
		"name": "Elwood",
		"postcode": "3184"
	},
	{
		"name": "Brighton Road"
	},
	{
		"name": "Melbourne",
		"postcode": "3004"
	},
	{
		"name": "Albert Park Barracks"
	},
	{
		"name": "Middle Park",
		"postcode": "3206"
	},
	{
		"name": "Port Melbourne",
		"postcode": "3207"
	},
	{
		"name": "Beacon Cove"
	},
	{
		"name": "Fishermans Bend"
	},
	{
		"name": "Garden City"
	},
	{
		"name": "Graham"
	},
	{
		"name": "Sandridge"
	},
	{
		"name": "Ripponlea",
		"postcode": "3185"
	},
	{
		"name": "St Kilda",
		"postcode": "3182"
	},
	{
		"name": "St Kilda South"
	},
	{
		"name": "St Kilda East",
		"postcode": "3183"
	},
	{
		"name": "St Kilda West",
		"postcode": "3182"
	},
	{
		"name": "St Kilda Junction"
	},
	{
		"name": "Southbank",
		"postcode": "3006"
	},
	{
		"name": "South Melbourne",
		"postcode": "3205"
	},
	{
		"name": "City Road"
	},
	{
		"name": "Emerald Hill"
	},
	{
		"name": "Montague"
	},
	{
		"name": "South Wharf",
		"postcode": "3006"
	},
	{
		"name": "Abbotsford",
		"postcode": "3067"
	},
	{
		"name": "Victoria Park"
	},
	{
		"name": "Alphington",
		"postcode": "3078"
	},
	{
		"name": "Burnley",
		"postcode": "3121"
	},
	{
		"name": "Carlton North",
		"postcode": "3054"
	},
	{
		"name": "Clifton Hill",
		"postcode": "3068"
	},
	{
		"name": "Collingwood",
		"postcode": "3066"
	},
	{
		"name": "Collingwood North"
	},
	{
		"name": "Cremorne",
		"postcode": "3121"
	},
	{
		"name": "Richmond East"
	},
	{
		"name": "Fairfield",
		"postcode": "3078"
	},
	{
		"name": "Yarra Bend"
	},
	{
		"name": "Fitzroy",
		"postcode": "3065"
	},
	{
		"name": "Eastern Hill"
	},
	{
		"name": "Fitzroy South"
	},
	{
		"name": "Fitzroy North",
		"postcode": "3068"
	},
	{
		"name": "Rushall"
	},
	{
		"name": "Princes Hill",
		"postcode": "3054"
	},
	{
		"name": "Richmond",
		"postcode": "3121"
	},
	{
		"name": "Burnley North"
	},
	{
		"name": "North Richmond"
	},
	{
		"name": "Richmond South"
	},
	{
		"name": "Victoria Gardens"
	},
	{
		"name": "West Richmond"
	},
	{
		"name": "Bellfield",
		"postcode": "3081"
	},
	{
		"name": "Briar Hill",
		"postcode": "3088"
	},
	{
		"name": "Bundoora",
		"postcode": "3083"
	},
	{
		"name": "Greenwood Village"
	},
	{
		"name": "Janefield"
	},
	{
		"name": "Larundel"
	},
	{
		"name": "Polaris"
	},
	{
		"name": "Eaglemont",
		"postcode": "3084"
	},
	{
		"name": "Eltham",
		"postcode": "3095"
	},
	{
		"name": "Eltham North",
		"postcode": "3095"
	},
	{
		"name": "Greensborough",
		"postcode": "3088"
	},
	{
		"name": "Apollo Parkways"
	},
	{
		"name": "Grace Park"
	},
	{
		"name": "Green Hills"
	},
	{
		"name": "Heidelberg",
		"postcode": "3084"
	},
	{
		"name": "Heidelberg Heights",
		"postcode": "3081"
	},
	{
		"name": "Heidelberg North"
	},
	{
		"name": "Heidelberg West",
		"postcode": "3081"
	},
	{
		"name": "Ivanhoe",
		"postcode": "3079"
	},
	{
		"name": "Darebin"
	},
	{
		"name": "Fairy Hills"
	},
	{
		"name": "Ivanhoe North"
	},
	{
		"name": "Ivanhoe East",
		"postcode": "3079"
	},
	{
		"name": "Lower Plenty",
		"postcode": "3093"
	},
	{
		"name": "Macleod",
		"postcode": "3085"
	},
	{
		"name": "Mont Park"
	},
	{
		"name": "Macleod West"
	},
	{
		"name": "Montmorency",
		"postcode": "3094"
	},
	{
		"name": "Rosanna",
		"postcode": "3084"
	},
	{
		"name": "Banyule"
	},
	{
		"name": "St Helena",
		"postcode": "3088"
	},
	{
		"name": "Viewbank",
		"postcode": "3084"
	},
	{
		"name": "Rosanna East"
	},
	{
		"name": "Watsonia",
		"postcode": "3087"
	},
	{
		"name": "Watsonia North",
		"postcode": "3087"
	},
	{
		"name": "Yallambie",
		"postcode": "3085"
	},
	{
		"name": "Alphington",
		"postcode": "3078"
	},
	{
		"name": "Bundoora",
		"postcode": "3083"
	},
	{
		"name": "Mount Cooper"
	},
	{
		"name": "Fairfield",
		"postcode": "3078"
	},
	{
		"name": "Kingsbury",
		"postcode": "3083"
	},
	{
		"name": "Macleod",
		"postcode": "3085"
	},
	{
		"name": "Northcote",
		"postcode": "3070"
	},
	{
		"name": "Croxton"
	},
	{
		"name": "Croxton East"
	},
	{
		"name": "Dennis"
	},
	{
		"name": "Merri"
	},
	{
		"name": "Northcote South"
	},
	{
		"name": "Rucker's Hill"
	},
	{
		"name": "Westgarth"
	},
	{
		"name": "Preston",
		"postcode": "3072"
	},
	{
		"name": "Bell"
	},
	{
		"name": "Darebin Park"
	},
	{
		"name": "Gilberton"
	},
	{
		"name": "Northland"
	},
	{
		"name": "Preston Lake"
	},
	{
		"name": "Preston West"
	},
	{
		"name": "Regent"
	},
	{
		"name": "Regent West"
	},
	{
		"name": "South Preston"
	},
	{
		"name": "Sylvester"
	},
	{
		"name": "Reservoir",
		"postcode": "3073"
	},
	{
		"name": "Gilbank"
	},
	{
		"name": "Regent"
	},
	{
		"name": "Reservoir East"
	},
	{
		"name": "Reservoir North"
	},
	{
		"name": "Reservoir South"
	},
	{
		"name": "Ruthven"
	},
	{
		"name": "Summerhill"
	},
	{
		"name": "Thornbury",
		"postcode": "3071"
	},
	{
		"name": "Pender"
	},
	{
		"name": "Thornbury North"
	},
	{
		"name": "Attwood",
		"postcode": "3049"
	},
	{
		"name": "Broadmeadows",
		"postcode": "3047"
	},
	{
		"name": "Broadmeadows South"
	},
	{
		"name": "Broadmeadows Square"
	},
	{
		"name": "Fentona"
	},
	{
		"name": "Meadow Fair"
	},
	{
		"name": "Campbellfield",
		"postcode": "3061"
	},
	{
		"name": "Coolaroo",
		"postcode": "3048"
	},
	{
		"name": "Craigieburn",
		"postcode": "3064"
	},
	{
		"name": "Dallas",
		"postcode": "3047"
	},
	{
		"name": "Upfield"
	},
	{
		"name": "Gladstone Park",
		"postcode": "3043"
	},
	{
		"name": "Greenvale",
		"postcode": "3059"
	},
	{
		"name": "Jacana",
		"postcode": "3047"
	},
	{
		"name": "Keilor",
		"postcode": "3036"
	},
	{
		"name": "Meadow Heights",
		"postcode": "3048"
	},
	{
		"name": "Melbourne Airport",
		"postcode": "3045"
	},
	{
		"name": "Roxburgh Park",
		"postcode": "3064"
	},
	{
		"name": "Somerton",
		"postcode": "3062"
	},
	{
		"name": "Tullamarine",
		"postcode": "3043"
	},
	{
		"name": "Westmeadows",
		"postcode": "3049"
	},
	{
		"name": "Sunbury",
		"postcode": "3429"
	},
	{
		"name": "Jacksons Hill"
	},
	{
		"name": "Goonawarra"
	},
	{
		"name": "Rupertswood"
	},
	{
		"name": "Bulla",
		"postcode": "3428"
	},
	{
		"name": "Clarkefield",
		"postcode": "3430"
	},
	{
		"name": "Lancefield Junction"
	},
	{
		"name": "Diggers Rest",
		"postcode": "3427"
	},
	{
		"name": "Kalkallo",
		"postcode": "3064"
	},
	{
		"name": "Mickleham",
		"postcode": "3064"
	},
	{
		"name": "Konagaderra Springs"
	},
	{
		"name": "Oaklands Junction",
		"postcode": "3063"
	},
	{
		"name": "Oaklands Park"
	},
	{
		"name": "Wildwood",
		"postcode": "3429"
	},
	{
		"name": "Yuroke",
		"postcode": "3063"
	},
	{
		"name": "Aberfeldie",
		"postcode": "3040"
	},
	{
		"name": "Airport West",
		"postcode": "3042"
	},
	{
		"name": "Ascot Vale",
		"postcode": "3032"
	},
	{
		"name": "Ascot Vale West"
	},
	{
		"name": "Avondale Heights",
		"postcode": "3034"
	},
	{
		"name": "Essendon",
		"postcode": "3040"
	},
	{
		"name": "Glenbervie"
	},
	{
		"name": "Cross Keys"
	},
	{
		"name": "Essendon Fields",
		"postcode": "3041"
	},
	{
		"name": "Essendon North",
		"postcode": "3041"
	},
	{
		"name": "Essendon West",
		"postcode": "3040"
	},
	{
		"name": "Flemington",
		"postcode": "3031"
	},
	{
		"name": "Newmarket"
	},
	{
		"name": "Keilor East",
		"postcode": "3033"
	},
	{
		"name": "Lincolnville"
	},
	{
		"name": "Moonee Ponds",
		"postcode": "3039"
	},
	{
		"name": "Niddrie",
		"postcode": "3042"
	},
	{
		"name": "Strathmore",
		"postcode": "3041"
	},
	{
		"name": "Strathmore Heights",
		"postcode": "3041"
	},
	{
		"name": "Travancore",
		"postcode": "3032"
	},
	{
		"name": "Brunswick",
		"postcode": "3056"
	},
	{
		"name": "Anstey"
	},
	{
		"name": "Brunswick Lake"
	},
	{
		"name": "Brunswick North"
	},
	{
		"name": "Jewell"
	},
	{
		"name": "Brunswick East",
		"postcode": "3057"
	},
	{
		"name": "Lygon Street North"
	},
	{
		"name": "Moreland East"
	},
	{
		"name": "Sumner"
	},
	{
		"name": "Brunswick West",
		"postcode": "3055"
	},
	{
		"name": "Grantham Street"
	},
	{
		"name": "Brunswick South"
	},
	{
		"name": "Moonee Vale"
	},
	{
		"name": "Moreland West"
	},
	{
		"name": "Coburg",
		"postcode": "3058"
	},
	{
		"name": "Coburg East"
	},
	{
		"name": "Moreland"
	},
	{
		"name": "Coburg North",
		"postcode": "3058"
	},
	{
		"name": "Merlynston"
	},
	{
		"name": "Newlands"
	},
	{
		"name": "Batman"
	},
	{
		"name": "Fawkner",
		"postcode": "3060"
	},
	{
		"name": "Fawkner East"
	},
	{
		"name": "Fawkner North"
	},
	{
		"name": "Gowrie"
	},
	{
		"name": "Moomba Park"
	},
	{
		"name": "Glenroy",
		"postcode": "3046"
	},
	{
		"name": "Westbreen"
	},
	{
		"name": "Gowanbrae",
		"postcode": "3043"
	},
	{
		"name": "Fern Ridge"
	},
	{
		"name": "Willowbrook"
	},
	{
		"name": "Hadfield",
		"postcode": "3046"
	},
	{
		"name": "Oak Park",
		"postcode": "3046"
	},
	{
		"name": "Pascoe Vale",
		"postcode": "3044"
	},
	{
		"name": "Pascoe Vale South",
		"postcode": "3044"
	},
	{
		"name": "Coonans Hill"
	},
	{
		"name": "Tullamarine",
		"postcode": "3043"
	},
	{
		"name": "Diamond Creek",
		"postcode": "3089"
	},
	{
		"name": "Eltham",
		"postcode": "3095"
	},
	{
		"name": "Glen Park"
	},
	{
		"name": "Eltham North",
		"postcode": "3095"
	},
	{
		"name": "Greensborough",
		"postcode": "3088"
	},
	{
		"name": "Hurstbridge",
		"postcode": "3099"
	},
	{
		"name": "Midhurst"
	},
	{
		"name": "North Warrandyte",
		"postcode": "3113"
	},
	{
		"name": "Sloan Hill"
	},
	{
		"name": "Research",
		"postcode": "3095"
	},
	{
		"name": "Wattle Glen",
		"postcode": "3096"
	},
	{
		"name": "Balee"
	},
	{
		"name": "Diamond Creek Upper"
	},
	{
		"name": "Bend of Islands",
		"postcode": "3097"
	},
	{
		"name": "Christmas Hills",
		"postcode": "3775"
	},
	{
		"name": "Rob Roy"
	},
	{
		"name": "Cottles Bridge",
		"postcode": "3099"
	},
	{
		"name": "Streamville"
	},
	{
		"name": "Doreen",
		"postcode": "3754"
	},
	{
		"name": "Kangaroo Ground",
		"postcode": "3097"
	},
	{
		"name": "Kangaroo Ground South"
	},
	{
		"name": "Pretty Hill"
	},
	{
		"name": "Kinglake",
		"postcode": "3763"
	},
	{
		"name": "Bylands",
		"postcode": "3762"
	},
	{
		"name": "Dashville"
	},
	{
		"name": "Mount Slide"
	},
	{
		"name": "Kinglake West",
		"postcode": "3778"
	},
	{
		"name": "Nutfield",
		"postcode": "3099"
	},
	{
		"name": "Panton Hill",
		"postcode": "3759"
	},
	{
		"name": "Plenty",
		"postcode": "3090"
	},
	{
		"name": "St Andrews",
		"postcode": "3761"
	},
	{
		"name": "Mittons Bridge"
	},
	{
		"name": "Queenstown"
	},
	{
		"name": "Smiths Gully",
		"postcode": "3760"
	},
	{
		"name": "Strathewen",
		"postcode": "3099"
	},
	{
		"name": "Eagle Nest"
	},
	{
		"name": "Watsons Creek",
		"postcode": "3097"
	},
	{
		"name": "Yan Yean",
		"postcode": "3755"
	},
	{
		"name": "Yarrambat",
		"postcode": "3091"
	},
	{
		"name": "Tanks Corner"
	},
	{
		"name": "Bundoora",
		"postcode": "3083"
	},
	{
		"name": "Doreen",
		"postcode": "3754"
	},
	{
		"name": "Hazel Glen"
	},
	{
		"name": "Laurimar"
	},
	{
		"name": "Linton Grange"
	},
	{
		"name": "Yan Yean South"
	},
	{
		"name": "Epping",
		"postcode": "3076"
	},
	{
		"name": "Aurora"
	},
	{
		"name": "Epping North"
	},
	{
		"name": "Lalor",
		"postcode": "3075"
	},
	{
		"name": "Lalor Plaza"
	},
	{
		"name": "Mernda",
		"postcode": "3754"
	},
	{
		"name": "Mill Park",
		"postcode": "3082"
	},
	{
		"name": "South Morang",
		"postcode": "3752"
	},
	{
		"name": "Thomastown",
		"postcode": "3074"
	},
	{
		"name": "Keon Park"
	},
	{
		"name": "Beveridge",
		"postcode": "3753"
	},
	{
		"name": "Merriang"
	},
	{
		"name": "Donnybrook",
		"postcode": "3064"
	},
	{
		"name": "Eden Park",
		"postcode": "3757"
	},
	{
		"name": "Humevale",
		"postcode": "3757"
	},
	{
		"name": "Scrubby Creek"
	},
	{
		"name": "Kinglake West",
		"postcode": "3778"
	},
	{
		"name": "Whittlesea",
		"postcode": "3757"
	},
	{
		"name": "Bruces Creek"
	},
	{
		"name": "Glenvale"
	},
	{
		"name": "Tommys Hut"
	},
	{
		"name": "Wallaby Creek"
	},
	{
		"name": "Wollert",
		"postcode": "3750"
	},
	{
		"name": "Woodstock",
		"postcode": "3755"
	},
	{
		"name": "Yan Yean",
		"postcode": "3755"
	},
	{
		"name": "Ashburton",
		"postcode": "3147"
	},
	{
		"name": "Alamein"
	},
	{
		"name": "Solway"
	},
	{
		"name": "Balwyn",
		"postcode": "3103"
	},
	{
		"name": "Balwyn East"
	},
	{
		"name": "Stradbroke Park"
	},
	{
		"name": "Balwyn North",
		"postcode": "3104"
	},
	{
		"name": "Bellevue"
	},
	{
		"name": "Fortuna"
	},
	{
		"name": "Greythorn"
	},
	{
		"name": "Trentwood"
	},
	{
		"name": "Yooralla"
	},
	{
		"name": "Camberwell",
		"postcode": "3124"
	},
	{
		"name": "Camberwell North"
	},
	{
		"name": "Camberwell South"
	},
	{
		"name": "Camberwell West"
	},
	{
		"name": "East Camberwell"
	},
	{
		"name": "Hartwell"
	},
	{
		"name": "Highfield Park"
	},
	{
		"name": "Middle Camberwell"
	},
	{
		"name": "Riversdale"
	},
	{
		"name": "Willison"
	},
	{
		"name": "Canterbury",
		"postcode": "3126"
	},
	{
		"name": "Shenley"
	},
	{
		"name": "Deepdene",
		"postcode": "3103"
	},
	{
		"name": "Glen Iris",
		"postcode": "3146"
	},
	{
		"name": "Hawthorn",
		"postcode": "3122"
	},
	{
		"name": "Auburn South"
	},
	{
		"name": "Barker"
	},
	{
		"name": "Glenferrie"
	},
	{
		"name": "Glenferrie South"
	},
	{
		"name": "Hawthorn North"
	},
	{
		"name": "Hawthorn West"
	},
	{
		"name": "Hawthorn East",
		"postcode": "3123"
	},
	{
		"name": "Auburn"
	},
	{
		"name": "Hawthorn South"
	},
	{
		"name": "Upper Hawthorn"
	},
	{
		"name": "Kew",
		"postcode": "3101"
	},
	{
		"name": "Balwyn West"
	},
	{
		"name": "Cotham"
	},
	{
		"name": "Studley Park"
	},
	{
		"name": "Willsmere"
	},
	{
		"name": "Kew East",
		"postcode": "3102"
	},
	{
		"name": "Harp"
	},
	{
		"name": "Kew North"
	},
	{
		"name": "Mont Albert",
		"postcode": "3127"
	},
	{
		"name": "Mont Albert North",
		"postcode": "3127"
	},
	{
		"name": "Surrey Hills",
		"postcode": "3127"
	},
	{
		"name": "Chatham"
	},
	{
		"name": "Elgar Park"
	},
	{
		"name": "Faversham"
	},
	{
		"name": "Bayswater",
		"postcode": "3153"
	},
	{
		"name": "Boronia",
		"postcode": "3155"
	},
	{
		"name": "Ferntree Gully",
		"postcode": "3156"
	},
	{
		"name": "Mountain Gate"
	},
	{
		"name": "Knoxfield",
		"postcode": "3180"
	},
	{
		"name": "Knox Park"
	},
	{
		"name": "Lysterfield",
		"postcode": "3156"
	},
	{
		"name": "Rowville",
		"postcode": "3178"
	},
	{
		"name": "Scoresby",
		"postcode": "3179"
	},
	{
		"name": "The Basin",
		"postcode": "3154"
	},
	{
		"name": "Upper Ferntree Gully",
		"postcode": "3156"
	},
	{
		"name": "Wantirna",
		"postcode": "3152"
	},
	{
		"name": "Knox City Centre"
	},
	{
		"name": "Wantirna South",
		"postcode": "3152"
	},
	{
		"name": "Studfield"
	},
	{
		"name": "Bulleen",
		"postcode": "3105"
	},
	{
		"name": "Bulleen South"
	},
	{
		"name": "Doncaster",
		"postcode": "3108"
	},
	{
		"name": "Doncaster Hill"
	},
	{
		"name": "Waldau"
	},
	{
		"name": "Doncaster East",
		"postcode": "3109"
	},
	{
		"name": "Doncaster Heights"
	},
	{
		"name": "The Pines"
	},
	{
		"name": "Tunstall Square"
	},
	{
		"name": "Waldau"
	},
	{
		"name": "Donburn"
	},
	{
		"name": "Donvale",
		"postcode": "3111"
	},
	{
		"name": "Park Orchards",
		"postcode": "3114"
	},
	{
		"name": "Templestowe",
		"postcode": "3106"
	},
	{
		"name": "Serpells"
	},
	{
		"name": "Templestowe Lower",
		"postcode": "3107"
	},
	{
		"name": "Macedon"
	},
	{
		"name": "Templestowe Heights"
	},
	{
		"name": "Templestowe West"
	},
	{
		"name": "Warrandyte",
		"postcode": "3113"
	},
	{
		"name": "Goldfields West End"
	},
	{
		"name": "Pound Bend"
	},
	{
		"name": "Warrandyte South",
		"postcode": "3134"
	},
	{
		"name": "Wonga Park",
		"postcode": "3115"
	},
	{
		"name": "Nunawading",
		"postcode": "3131"
	},
	{
		"name": "Ringwood North",
		"postcode": "3134"
	},
	{
		"name": "Bayswater North",
		"postcode": "3153"
	},
	{
		"name": "Croydon",
		"postcode": "3136"
	},
	{
		"name": "Burnt Bridge"
	},
	{
		"name": "Nelsons Hill"
	},
	{
		"name": "Clifford Park"
	},
	{
		"name": "Croydon Hills",
		"postcode": "3136"
	},
	{
		"name": "Croydon North",
		"postcode": "3136"
	},
	{
		"name": "Croydon South",
		"postcode": "3136"
	},
	{
		"name": "Heathmont",
		"postcode": "3135"
	},
	{
		"name": "Eastwood"
	},
	{
		"name": "Kilsyth South",
		"postcode": "3137"
	},
	{
		"name": "Ringwood",
		"postcode": "3134"
	},
	{
		"name": "Heathwood"
	},
	{
		"name": "Cherrydene"
	},
	{
		"name": "Ringwood East",
		"postcode": "3135"
	},
	{
		"name": "Bedford Road"
	},
	{
		"name": "Ringwood North",
		"postcode": "3134"
	},
	{
		"name": "Warranwood",
		"postcode": "3134"
	},
	{
		"name": "Norwood"
	},
	{
		"name": "Blackburn",
		"postcode": "3130"
	},
	{
		"name": "Laburnum"
	},
	{
		"name": "Bellbird"
	},
	{
		"name": "Blackburn North",
		"postcode": "3130"
	},
	{
		"name": "Blackburn South",
		"postcode": "3130"
	},
	{
		"name": "Kinkuna"
	},
	{
		"name": "Box Hill",
		"postcode": "3128"
	},
	{
		"name": "Box Hill Central"
	},
	{
		"name": "Box Hill North",
		"postcode": "3129"
	},
	{
		"name": "Kerrimuir"
	},
	{
		"name": "Koonung"
	},
	{
		"name": "Mont Albert North"
	},
	{
		"name": "Box Hill South",
		"postcode": "3128"
	},
	{
		"name": "Houston"
	},
	{
		"name": "Burwood",
		"postcode": "3125"
	},
	{
		"name": "Bennettswood"
	},
	{
		"name": "Surrey Hills South"
	},
	{
		"name": "Wattle Park"
	},
	{
		"name": "Burwood East",
		"postcode": "3151"
	},
	{
		"name": "Burwood Heights"
	},
	{
		"name": "Tally Ho"
	},
	{
		"name": "Forest Hill",
		"postcode": "3131"
	},
	{
		"name": "Brentford Square"
	},
	{
		"name": "Mitcham",
		"postcode": "3132"
	},
	{
		"name": "Heatherdale"
	},
	{
		"name": "Rangeview"
	},
	{
		"name": "Mont Albert",
		"postcode": "3127"
	},
	{
		"name": "Nunawading",
		"postcode": "3131"
	},
	{
		"name": "Parkmore"
	},
	{
		"name": "Tunstall"
	},
	{
		"name": "Surrey Hills",
		"postcode": "3127"
	},
	{
		"name": "Vermont",
		"postcode": "3133"
	},
	{
		"name": "Vermont Estate"
	},
	{
		"name": "Vermont West"
	},
	{
		"name": "Vermont South",
		"postcode": "3133"
	},
	{
		"name": "Belgrave",
		"postcode": "3160"
	},
	{
		"name": "Belgrave Heights",
		"postcode": "3160"
	},
	{
		"name": "Belgrave South",
		"postcode": "3160"
	},
	{
		"name": "Chirnside Park",
		"postcode": "3116"
	},
	{
		"name": "Black Springs"
	},
	{
		"name": "Kilsyth",
		"postcode": "3137"
	},
	{
		"name": "Lilydale",
		"postcode": "3140"
	},
	{
		"name": "Montrose",
		"postcode": "3765"
	},
	{
		"name": "Mooroolbark",
		"postcode": "3138"
	},
	{
		"name": "Mount Evelyn",
		"postcode": "3796"
	},
	{
		"name": "Mckillop"
	},
	{
		"name": "Selby",
		"postcode": "3159"
	},
	{
		"name": "Tecoma",
		"postcode": "3160"
	},
	{
		"name": "Upper Ferntree Gully",
		"postcode": "3156"
	},
	{
		"name": "Upwey",
		"postcode": "3158"
	},
	{
		"name": "Badger Creek",
		"postcode": "3777"
	},
	{
		"name": "Beenak",
		"postcode": "3139"
	},
	{
		"name": "Basan Corner"
	},
	{
		"name": "Big Pats Creek",
		"postcode": "3799"
	},
	{
		"name": "Cambarville",
		"postcode": "3779"
	},
	{
		"name": "Fifteen Mile"
	},
	{
		"name": "Kel Junction"
	},
	{
		"name": "Montys Hut"
	},
	{
		"name": "Shaw"
	},
	{
		"name": "The Triangle"
	},
	{
		"name": "Chum Creek",
		"postcode": "3777"
	},
	{
		"name": "Healesville"
	},
	{
		"name": "Coldstream",
		"postcode": "3770"
	},
	{
		"name": "Coldstream West"
	},
	{
		"name": "Dixons Creek",
		"postcode": "3775"
	},
	{
		"name": "Don Valley",
		"postcode": "3139"
	},
	{
		"name": "Fernshaw",
		"postcode": "3778"
	},
	{
		"name": "Ferny Creek",
		"postcode": "3786"
	},
	{
		"name": "One Tree Hill"
	},
	{
		"name": "Gilderoy",
		"postcode": "3797"
	},
	{
		"name": "Gladysdale",
		"postcode": "3797"
	},
	{
		"name": "Saint Benedicts"
	},
	{
		"name": "Gruyere",
		"postcode": "3770"
	},
	{
		"name": "Cahillton"
	},
	{
		"name": "Yeringberg"
	},
	{
		"name": "Healesville",
		"postcode": "3777"
	},
	{
		"name": "Tims Corner"
	},
	{
		"name": "Hoddles Creek",
		"postcode": "3139"
	},
	{
		"name": "Kallista",
		"postcode": "3791"
	},
	{
		"name": "Beagleys Bridge"
	},
	{
		"name": "Sassafras South"
	},
	{
		"name": "Kalorama",
		"postcode": "3766"
	},
	{
		"name": "Launching Place",
		"postcode": "3139"
	},
	{
		"name": "Lysterfield",
		"postcode": "3156"
	},
	{
		"name": "Macclesfield",
		"postcode": "3782"
	},
	{
		"name": "McMahons Creek",
		"postcode": "3799"
	},
	{
		"name": "Matlock",
		"postcode": "3723"
	},
	{
		"name": "Menzies Creek",
		"postcode": "3159"
	},
	{
		"name": "Millgrove",
		"postcode": "3799"
	},
	{
		"name": "Monbulk",
		"postcode": "3793"
	},
	{
		"name": "Nathania Springs"
	},
	{
		"name": "Mount Dandenong",
		"postcode": "3767"
	},
	{
		"name": "Mount Toolebewong",
		"postcode": "3777"
	},
	{
		"name": "Narre Warren East",
		"postcode": "3804"
	},
	{
		"name": "Olinda",
		"postcode": "3788"
	},
	{
		"name": "Harmony Vale"
	},
	{
		"name": "Powelltown",
		"postcode": "3797"
	},
	{
		"name": "Black Sands"
	},
	{
		"name": "Erreys"
	},
	{
		"name": "Nayook West"
	},
	{
		"name": "Quongup"
	},
	{
		"name": "Reefton",
		"postcode": "3799"
	},
	{
		"name": "Upper Yarra Dam"
	},
	{
		"name": "Sassafras",
		"postcode": "3787"
	},
	{
		"name": "Sassafras Gully"
	},
	{
		"name": "Seville",
		"postcode": "3139"
	},
	{
		"name": "Seville East",
		"postcode": "3139"
	},
	{
		"name": "Killara"
	},
	{
		"name": "Sherbrooke",
		"postcode": "3789"
	},
	{
		"name": "Silvan",
		"postcode": "3795"
	},
	{
		"name": "Burleigh"
	},
	{
		"name": "Silvan South"
	},
	{
		"name": "Steels Creek",
		"postcode": "3775"
	},
	{
		"name": "Tarrawarra",
		"postcode": "3775"
	},
	{
		"name": "The Patch",
		"postcode": "3792"
	},
	{
		"name": "Three Bridges",
		"postcode": "3797"
	},
	{
		"name": "Toorongo",
		"postcode": "3833"
	},
	{
		"name": "Tremont",
		"postcode": "3785"
	},
	{
		"name": "Wandin East",
		"postcode": "3139"
	},
	{
		"name": "Wandin North",
		"postcode": "3139"
	},
	{
		"name": "Wandin Yallock"
	},
	{
		"name": "Warburton",
		"postcode": "3799"
	},
	{
		"name": "Old Warburton"
	},
	{
		"name": "Warburton East",
		"postcode": "3799"
	},
	{
		"name": "Wesburn",
		"postcode": "3799"
	},
	{
		"name": "Britannia Creek"
	},
	{
		"name": "Tarrango"
	},
	{
		"name": "Woori Yallock",
		"postcode": "3139"
	},
	{
		"name": "Yarra Glen",
		"postcode": "3775"
	},
	{
		"name": "Tanana"
	},
	{
		"name": "Yarra Junction",
		"postcode": "3797"
	},
	{
		"name": "Yellingbo",
		"postcode": "3139"
	},
	{
		"name": "Parslow"
	},
	{
		"name": "Yering",
		"postcode": "3770"
	},
	{
		"name": "Beaumaris",
		"postcode": "3193"
	},
	{
		"name": "Cromer"
	},
	{
		"name": "Black Rock",
		"postcode": "3193"
	},
	{
		"name": "Black Rock North"
	},
	{
		"name": "Half Moon Bay"
	},
	{
		"name": "Ricketts Point"
	},
	{
		"name": "Brighton",
		"postcode": "3186"
	},
	{
		"name": "Dendy"
	},
	{
		"name": "Were Street"
	},
	{
		"name": "Brighton Beach"
	},
	{
		"name": "Brighton North"
	},
	{
		"name": "Middle Brighton"
	},
	{
		"name": "Brighton East",
		"postcode": "3187"
	},
	{
		"name": "North Road"
	},
	{
		"name": "Cheltenham",
		"postcode": "3192"
	},
	{
		"name": "Southland Centre"
	},
	{
		"name": "Pennydale"
	},
	{
		"name": "Gardenvale",
		"postcode": "3185"
	},
	{
		"name": "Hampton",
		"postcode": "3188"
	},
	{
		"name": "Castlefield"
	},
	{
		"name": "Hampton East",
		"postcode": "3188"
	},
	{
		"name": "Highett",
		"postcode": "3190"
	},
	{
		"name": "Sandringham",
		"postcode": "3191"
	},
	{
		"name": "Moorabbin",
		"postcode": "3189"
	},
	{
		"name": "Beaconsfield",
		"postcode": "3807"
	},
	{
		"name": "Officer",
		"postcode": "3809"
	},
	{
		"name": "Officer South"
	},
	{
		"name": "Pakenham",
		"postcode": "3810"
	},
	{
		"name": "Toomuc Valley"
	},
	{
		"name": "Emerald",
		"postcode": "3782"
	},
	{
		"name": "Lakeside"
	},
	{
		"name": "Nobelius"
	},
	{
		"name": "Avonsleigh",
		"postcode": "3782"
	},
	{
		"name": "Bayles",
		"postcode": "3981"
	},
	{
		"name": "Yallock"
	},
	{
		"name": "Beaconsfield Upper",
		"postcode": "3808"
	},
	{
		"name": "Cations"
	},
	{
		"name": "Bunyip",
		"postcode": "3815"
	},
	{
		"name": "Bunyip North",
		"postcode": "3815"
	},
	{
		"name": "Caldermeade",
		"postcode": "3984"
	},
	{
		"name": "Cardinia",
		"postcode": "3978"
	},
	{
		"name": "Lisbaun"
	},
	{
		"name": "Catani",
		"postcode": "3981"
	},
	{
		"name": "Clematis",
		"postcode": "3782"
	},
	{
		"name": "Cockatoo",
		"postcode": "3781"
	},
	{
		"name": "Fielder"
	},
	{
		"name": "Wright"
	},
	{
		"name": "Cora Lynn",
		"postcode": "3814"
	},
	{
		"name": "Dalmore",
		"postcode": "3981"
	},
	{
		"name": "Dewhurst",
		"postcode": "3809"
	},
	{
		"name": "Garfield",
		"postcode": "3814"
	},
	{
		"name": "Garfield North",
		"postcode": "3814"
	},
	{
		"name": "Gembrook",
		"postcode": "3783"
	},
	{
		"name": "Cornucopia"
	},
	{
		"name": "Gilwell Park"
	},
	{
		"name": "Whites Corner"
	},
	{
		"name": "Guys Hill",
		"postcode": "3807"
	},
	{
		"name": "Heath Hill",
		"postcode": "3981"
	},
	{
		"name": "Iona",
		"postcode": "3815"
	},
	{
		"name": "Koo Wee Rup",
		"postcode": "3981"
	},
	{
		"name": "Dalmore East"
	},
	{
		"name": "Koo Wee Rup North",
		"postcode": "3891"
	},
	{
		"name": "Lang Lang",
		"postcode": "3984"
	},
	{
		"name": "Lang Lang East",
		"postcode": "3894"
	},
	{
		"name": "Longwarry",
		"postcode": "3816"
	},
	{
		"name": "Maryknoll",
		"postcode": "3812"
	},
	{
		"name": "Menzies Creek",
		"postcode": "3159"
	},
	{
		"name": "Modella",
		"postcode": "3816"
	},
	{
		"name": "Monomeith",
		"postcode": "3984"
	},
	{
		"name": "Mount Burnett",
		"postcode": "3781"
	},
	{
		"name": "Nangana",
		"postcode": "3781"
	},
	{
		"name": "Nar Nar Goon",
		"postcode": "3812"
	},
	{
		"name": "Nar Nar Goon North",
		"postcode": "3812"
	},
	{
		"name": "Nyora",
		"postcode": "3987"
	},
	{
		"name": "Officer South",
		"postcode": "3809"
	},
	{
		"name": "Pakenham South",
		"postcode": "3810"
	},
	{
		"name": "Pakenham Upper",
		"postcode": "3810"
	},
	{
		"name": "Rythdale",
		"postcode": "3810"
	},
	{
		"name": "Tonimbuk",
		"postcode": "3815"
	},
	{
		"name": "Tooradin North",
		"postcode": "3977"
	},
	{
		"name": "Tynong",
		"postcode": "3813"
	},
	{
		"name": "Tynong North",
		"postcode": "3813"
	},
	{
		"name": "Vervale",
		"postcode": "3814"
	},
	{
		"name": "Yannathan",
		"postcode": "3894"
	},
	{
		"name": "Berwick",
		"postcode": "3806"
	},
	{
		"name": "Botanic Ridge",
		"postcode": "3977"
	},
	{
		"name": "Clyde",
		"postcode": "3978"
	},
	{
		"name": "Clyde North",
		"postcode": "3978"
	},
	{
		"name": "Cranbourne",
		"postcode": "3977"
	},
	{
		"name": "Cranbourne East",
		"postcode": "3977"
	},
	{
		"name": "Cranbourne North",
		"postcode": "397"
	},
	{
		"name": "Merinda Park"
	},
	{
		"name": "Cranbourne West",
		"postcode": "3977"
	},
	{
		"name": "Cranbourne South",
		"postcode": "3977"
	},
	{
		"name": "Centreville"
	},
	{
		"name": "Doveton",
		"postcode": "3177"
	},
	{
		"name": "Endeavour Hills",
		"postcode": "3802"
	},
	{
		"name": "Eumemmerring",
		"postcode": "3177"
	},
	{
		"name": "Hallam",
		"postcode": "3803"
	},
	{
		"name": "Hampton Park",
		"postcode": "3976"
	},
	{
		"name": "Junction Village",
		"postcode": "3977"
	},
	{
		"name": "Lynbrook",
		"postcode": "3975"
	},
	{
		"name": "Narre Warren",
		"postcode": "3805"
	},
	{
		"name": "Narre Warren North",
		"postcode": "3804"
	},
	{
		"name": "Narre Warren South",
		"postcode": "3805"
	},
	{
		"name": "Blind Bight",
		"postcode": "3980"
	},
	{
		"name": "Cannons Creek",
		"postcode": "3977"
	},
	{
		"name": "Devon Meadows",
		"postcode": "3977"
	},
	{
		"name": "Fiveways"
	},
	{
		"name": "Harkaway",
		"postcode": "3806"
	},
	{
		"name": "Lysterfield South",
		"postcode": "3156"
	},
	{
		"name": "Pearcedale",
		"postcode": "3912"
	},
	{
		"name": "Tooradin",
		"postcode": "3980"
	},
	{
		"name": "Warneet",
		"postcode": "3980"
	},
	{
		"name": "Dandenong",
		"postcode": "3175"
	},
	{
		"name": "Cleeland"
	},
	{
		"name": "Dunearn"
	},
	{
		"name": "Dandenong East"
	},
	{
		"name": "Dandenong Plaza"
	},
	{
		"name": "Oakwood Park"
	},
	{
		"name": "Dandenong North",
		"postcode": "3175"
	},
	{
		"name": "Lyndale"
	},
	{
		"name": "Dandenong South",
		"postcode": "3175"
	},
	{
		"name": "Keysborough",
		"postcode": "3173"
	},
	{
		"name": "Parkmore"
	},
	{
		"name": "Noble Park",
		"postcode": "3174"
	},
	{
		"name": "Harrisfield"
	},
	{
		"name": "Noble Park East"
	},
	{
		"name": "Yarraman"
	},
	{
		"name": "Noble Park North",
		"postcode": "3174"
	},
	{
		"name": "Springvale",
		"postcode": "3171"
	},
	{
		"name": "Sandown Park"
	},
	{
		"name": "Springvale South",
		"postcode": "3172"
	},
	{
		"name": "Lyndhurst",
		"postcode": "3975"
	},
	{
		"name": "Bangholme",
		"postcode": "3175"
	},
	{
		"name": "Carrum Downs",
		"postcode": "3201"
	},
	{
		"name": "Frankston",
		"postcode": "3199"
	},
	{
		"name": "Eliza Heights"
	},
	{
		"name": "Frankston East"
	},
	{
		"name": "Frankston Heights"
	},
	{
		"name": "Karingal"
	},
	{
		"name": "Leawarra"
	},
	{
		"name": "Long Island"
	},
	{
		"name": "Mile Bridge"
	},
	{
		"name": "Mount Erin"
	},
	{
		"name": "Olivers Hill"
	},
	{
		"name": "Frankston North",
		"postcode": "3200"
	},
	{
		"name": "Pines Forest"
	},
	{
		"name": "Frankston South",
		"postcode": "3199"
	},
	{
		"name": "Baden Powell"
	},
	{
		"name": "Langwarrin",
		"postcode": "3910"
	},
	{
		"name": "Sandhurst",
		"postcode": "3977"
	},
	{
		"name": "Seaford",
		"postcode": "3198"
	},
	{
		"name": "Belvedere Park"
	},
	{
		"name": "Kananook"
	},
	{
		"name": "Skye",
		"postcode": "3977"
	},
	{
		"name": "Lyndhurst South"
	},
	{
		"name": "Rural locality"
	},
	{
		"name": "Langwarrin South",
		"postcode": "3911"
	},
	{
		"name": "Bentleigh",
		"postcode": "3204"
	},
	{
		"name": "Patterson"
	},
	{
		"name": "Bentleigh East",
		"postcode": "3165"
	},
	{
		"name": "Coatesville"
	},
	{
		"name": "Eastmoor"
	},
	{
		"name": "Caulfield",
		"postcode": "3162"
	},
	{
		"name": "Caulfield East",
		"postcode": "3145"
	},
	{
		"name": "Caulfield North",
		"postcode": "3161"
	},
	{
		"name": "Caulfield Junction"
	},
	{
		"name": "Crimea"
	},
	{
		"name": "Caulfield South",
		"postcode": "3162"
	},
	{
		"name": "Hopetoun Gardens"
	},
	{
		"name": "Carnegie",
		"postcode": "3163"
	},
	{
		"name": "Elsternwick",
		"postcode": "3185"
	},
	{
		"name": "Gardenvale",
		"postcode": "3185"
	},
	{
		"name": "Gardenvale West"
	},
	{
		"name": "Glen Huntly",
		"postcode": "3163"
	},
	{
		"name": "Booran Road"
	},
	{
		"name": "McKinnon",
		"postcode": "3204"
	},
	{
		"name": "Murrumbeena",
		"postcode": "3163"
	},
	{
		"name": "Beauville"
	},
	{
		"name": "Ormond",
		"postcode": "3204"
	},
	{
		"name": "Ormond East"
	},
	{
		"name": "St Kilda East",
		"postcode": "3183"
	},
	{
		"name": "Aspendale",
		"postcode": "3195"
	},
	{
		"name": "Aspendale Gardens",
		"postcode": "3195"
	},
	{
		"name": "Bonbeach",
		"postcode": "3196"
	},
	{
		"name": "Braeside",
		"postcode": "3195"
	},
	{
		"name": "Carrum",
		"postcode": "3197"
	},
	{
		"name": "Chelsea",
		"postcode": "3196"
	},
	{
		"name": "Chelsea Heights",
		"postcode": "3196"
	},
	{
		"name": "Cheltenham",
		"postcode": "3192"
	},
	{
		"name": "Cheltenham East"
	},
	{
		"name": "Cheltenham North"
	},
	{
		"name": "Clarinda",
		"postcode": "3169"
	},
	{
		"name": "Clayton South",
		"postcode": "3169"
	},
	{
		"name": "Westall"
	},
	{
		"name": "Dingley Village",
		"postcode": "3172"
	},
	{
		"name": "Dingley"
	},
	{
		"name": "Heathen Hill"
	},
	{
		"name": "Edithvale",
		"postcode": "3196"
	},
	{
		"name": "Heatherton",
		"postcode": "3202"
	},
	{
		"name": "Highett",
		"postcode": "3190"
	},
	{
		"name": "Mentone",
		"postcode": "3194"
	},
	{
		"name": "Charman"
	},
	{
		"name": "Mentone East"
	},
	{
		"name": "Moorabbin",
		"postcode": "3189"
	},
	{
		"name": "Moorabbin East"
	},
	{
		"name": "Wishart"
	},
	{
		"name": "Moorabbin Airport",
		"postcode": "3194"
	},
	{
		"name": "Mordialloc",
		"postcode": "3195"
	},
	{
		"name": "Mordialloc North"
	},
	{
		"name": "Parkdale",
		"postcode": "3195"
	},
	{
		"name": "Patterson Lakes",
		"postcode": "3197"
	},
	{
		"name": "Patterson Gardens"
	},
	{
		"name": "Waterways",
		"postcode": "3195"
	},
	{
		"name": "Ashwood",
		"postcode": "3147"
	},
	{
		"name": "Stocksville"
	},
	{
		"name": "Burwood",
		"postcode": "3125"
	},
	{
		"name": "Chadstone",
		"postcode": "3148"
	},
	{
		"name": "Jordanville South"
	},
	{
		"name": "Clayton",
		"postcode": "3168"
	},
	{
		"name": "Clayton North"
	},
	{
		"name": "Petersville"
	},
	{
		"name": "Westerfield"
	},
	{
		"name": "Whitburn"
	},
	{
		"name": "Glen Waverley",
		"postcode": "3150"
	},
	{
		"name": "Brentwood"
	},
	{
		"name": "Syndal"
	},
	{
		"name": "Syndal East"
	},
	{
		"name": "Hughesdale",
		"postcode": "3166"
	},
	{
		"name": "Huntingdale",
		"postcode": "3166"
	},
	{
		"name": "Monash University",
		"postcode": "3800"
	},
	{
		"name": "Mount Waverley",
		"postcode": "3149"
	},
	{
		"name": "Bayview"
	},
	{
		"name": "Highbury View"
	},
	{
		"name": "Jordanville"
	},
	{
		"name": "Pinewood"
	},
	{
		"name": "Mulgrave",
		"postcode": "3170"
	},
	{
		"name": "Monashville"
	},
	{
		"name": "Mulgrave East"
	},
	{
		"name": "Mulgrave North"
	},
	{
		"name": "Valewood"
	},
	{
		"name": "Waverley Gardens"
	},
	{
		"name": "Waverley Park"
	},
	{
		"name": "Notting Hill",
		"postcode": "3168"
	},
	{
		"name": "Oakleigh",
		"postcode": "3166"
	},
	{
		"name": "Oakleigh East",
		"postcode": "3166"
	},
	{
		"name": "Oakleigh South",
		"postcode": "3167"
	},
	{
		"name": "Moorleigh"
	},
	{
		"name": "Wheelers Hill",
		"postcode": "3150"
	},
	{
		"name": "Brandon Park"
	},
	{
		"name": "Jells Park"
	},
	{
		"name": "Blairgowrie",
		"postcode": "3942"
	},
	{
		"name": "Capel Sound",
		"postcode": "3940"
	},
	{
		"name": "Dromana",
		"postcode": "3936"
	},
	{
		"name": "Moats Corner"
	},
	{
		"name": "McCrae",
		"postcode": "3938"
	},
	{
		"name": "Dromana Lighthouse"
	},
	{
		"name": "Dromana West"
	},
	{
		"name": "Mornington",
		"postcode": "3931"
	},
	{
		"name": "Beleura Hill"
	},
	{
		"name": "Fishermans Beach"
	},
	{
		"name": "Tanti Park"
	},
	{
		"name": "Mount Eliza",
		"postcode": "3930"
	},
	{
		"name": "Canadian Bay"
	},
	{
		"name": "Daveys Bay"
	},
	{
		"name": "Kunyung"
	},
	{
		"name": "Raneleigh"
	},
	{
		"name": "Mount Martha",
		"postcode": "3934"
	},
	{
		"name": "Balcombe"
	},
	{
		"name": "Maryport"
	},
	{
		"name": "Osborne"
	},
	{
		"name": "Portsea",
		"postcode": "3944"
	},
	{
		"name": "Point Nepean"
	},
	{
		"name": "Quarantine Station"
	},
	{
		"name": "Rosebud",
		"postcode": "3939"
	},
	{
		"name": "Peninsular Gardens"
	},
	{
		"name": "Rosebud Plaza"
	},
	{
		"name": "Rosebud South"
	},
	{
		"name": "Rye",
		"postcode": "3941"
	},
	{
		"name": "Tyrone"
	},
	{
		"name": "Safety Beach",
		"postcode": "3936"
	},
	{
		"name": "St Andrews Beach",
		"postcode": "3941"
	},
	{
		"name": "Sorrento",
		"postcode": "3943"
	},
	{
		"name": "Koonya"
	},
	{
		"name": "Tootgarook",
		"postcode": "3941"
	},
	{
		"name": "Bittern",
		"postcode": "3918"
	},
	{
		"name": "Crib Point",
		"postcode": "3919"
	},
	{
		"name": "Stony Point"
	},
	{
		"name": "Hastings",
		"postcode": "3915"
	},
	{
		"name": "Old Tyabb"
	},
	{
		"name": "Somerville",
		"postcode": "3912"
	},
	{
		"name": "Bembridge"
	},
	{
		"name": "Pearcedale"
	},
	{
		"name": "Tyabb",
		"postcode": "3913"
	},
	{
		"name": "Tyabb East"
	},
	{
		"name": "Arthurs Seat",
		"postcode": "3936"
	},
	{
		"name": "Dromana South"
	},
	{
		"name": "Balnarring",
		"postcode": "3926"
	},
	{
		"name": "Balnarring North"
	},
	{
		"name": "Balnarring Beach",
		"postcode": "3926"
	},
	{
		"name": "Baxter",
		"postcode": "3911"
	},
	{
		"name": "Boneo",
		"postcode": "3939"
	},
	{
		"name": "Cape Schanck",
		"postcode": "3939"
	},
	{
		"name": "Fingal",
		"postcode": "3939"
	},
	{
		"name": "Gunnamatta"
	},
	{
		"name": "Flinders",
		"postcode": "3929"
	},
	{
		"name": "Blackberry Corner"
	},
	{
		"name": "HMAS Cerberus",
		"postcode": "3920"
	},
	{
		"name": "Main Ridge",
		"postcode": "3928"
	},
	{
		"name": "Merricks",
		"postcode": "3916"
	},
	{
		"name": "Merricks Beach",
		"postcode": "3926"
	},
	{
		"name": "Merricks North",
		"postcode": "3926"
	},
	{
		"name": "Foxeys Hangout"
	},
	{
		"name": "Moorooduc",
		"postcode": "3933"
	},
	{
		"name": "Point Leo",
		"postcode": "3916"
	},
	{
		"name": "Red Hill",
		"postcode": "3937"
	},
	{
		"name": "Red Hill South",
		"postcode": "3937"
	},
	{
		"name": "Shoreham",
		"postcode": "3916"
	},
	{
		"name": "Somers",
		"postcode": "3927"
	},
	{
		"name": "Balnarring East"
	},
	{
		"name": "Tuerong",
		"postcode": "3915"
	},
	{
		"name": "Hastings West"
	},
	{
		"name": "Moorooduc South"
	},
	{
		"name": "Armadale",
		"postcode": "3143"
	},
	{
		"name": "Armadale North"
	},
	{
		"name": "Glen Iris",
		"postcode": "3146"
	},
	{
		"name": "Gardiner"
	},
	{
		"name": "Kooyong",
		"postcode": "3144"
	},
	{
		"name": "Malvern",
		"postcode": "3144"
	},
	{
		"name": "Malvern North"
	},
	{
		"name": "Tooronga"
	},
	{
		"name": "Malvern East",
		"postcode": "3145"
	},
	{
		"name": "Central Park"
	},
	{
		"name": "Darling"
	},
	{
		"name": "Darling South"
	},
	{
		"name": "Holmesglen"
	},
	{
		"name": "Wattletree Road"
	},
	{
		"name": "Prahran ",
		"postcode": "3181"
	},
	{
		"name": "South Yarra",
		"postcode": "3141"
	},
	{
		"name": "Hawksburn"
	},
	{
		"name": "Toorak",
		"postcode": "3142"
	},
	{
		"name": "Windsor",
		"postcode": "3181"
	},
	{
		"name": "Albanvale",
		"postcode": "3021"
	},
	{
		"name": "Albion",
		"postcode": "3020"
	},
	{
		"name": "Ardeer",
		"postcode": "3022"
	},
	{
		"name": "Brooklyn",
		"postcode": "3012"
	},
	{
		"name": "Cairnlea",
		"postcode": "3023"
	},
	{
		"name": "Calder Park",
		"postcode": "3037"
	},
	{
		"name": "Deer Park",
		"postcode": "3023"
	},
	{
		"name": "Delahey",
		"postcode": "3037"
	},
	{
		"name": "Derrimut",
		"postcode": "3030"
	},
	{
		"name": "Hillside",
		"postcode": "3037"
	},
	{
		"name": "Kealba",
		"postcode": "3021"
	},
	{
		"name": "Keilor",
		"postcode": "3036"
	},
	{
		"name": "Brimbank"
	},
	{
		"name": "Keilor Downs",
		"postcode": "3038"
	},
	{
		"name": "Keilor East",
		"postcode": "3033"
	},
	{
		"name": "Keilor Lodge",
		"postcode": "3038"
	},
	{
		"name": "Keilor North",
		"postcode": "3036"
	},
	{
		"name": "Sydenham Park"
	},
	{
		"name": "Keilor Park",
		"postcode": "3042"
	},
	{
		"name": "Kings Park",
		"postcode": "3021"
	},
	{
		"name": "St Albans",
		"postcode": "3021"
	},
	{
		"name": "St Albans East"
	},
	{
		"name": "St Albans South"
	},
	{
		"name": "Sunshine",
		"postcode": "3020"
	},
	{
		"name": "Sunshine North",
		"postcode": "3020"
	},
	{
		"name": "Sunshine West",
		"postcode": "3020"
	},
	{
		"name": "Ardeer South"
	},
	{
		"name": "Glengala"
	},
	{
		"name": "Sydenham",
		"postcode": "3037"
	},
	{
		"name": "Taylors Lakes",
		"postcode": "3038"
	},
	{
		"name": "Robertson"
	},
	{
		"name": "Watergardens"
	},
	{
		"name": "Altona",
		"postcode": "3018"
	},
	{
		"name": "Altona Meadows",
		"postcode": "3028"
	},
	{
		"name": "Laverton South"
	},
	{
		"name": "Altona North",
		"postcode": "3025"
	},
	{
		"name": "Altona East"
	},
	{
		"name": "Altona Gate"
	},
	{
		"name": "Brooklyn",
		"postcode": "3012"
	},
	{
		"name": "Laverton",
		"postcode": "3028"
	},
	{
		"name": "Newport",
		"postcode": "3015"
	},
	{
		"name": "Spotswood",
		"postcode": "3015"
	},
	{
		"name": "Seabrook",
		"postcode": "3028"
	},
	{
		"name": "Seaholme",
		"postcode": "3018"
	},
	{
		"name": "South Kingsville",
		"postcode": "3015"
	},
	{
		"name": "Williamstown",
		"postcode": "3016"
	},
	{
		"name": "Williamstown North",
		"postcode": "3016"
	},
	{
		"name": "Braybrook",
		"postcode": "3019"
	},
	{
		"name": "Robinson"
	},
	{
		"name": "Footscray",
		"postcode": "3011"
	},
	{
		"name": "Kingsville",
		"postcode": "3012"
	},
	{
		"name": "Maidstone",
		"postcode": "3012"
	},
	{
		"name": "Maribyrnong",
		"postcode": "3032"
	},
	{
		"name": "Seddon",
		"postcode": "3011"
	},
	{
		"name": "Tottenham",
		"postcode": "3012"
	},
	{
		"name": "West Footscray",
		"postcode": "3012"
	},
	{
		"name": "Yarraville",
		"postcode": "3013"
	},
	{
		"name": "Aintree"
	},
	{
		"name": "Bonnie Brook"
	},
	{
		"name": "Brookfield",
		"postcode": "3338"
	},
	{
		"name": "Burnside",
		"postcode": "3023"
	},
	{
		"name": "Burnside Heights",
		"postcode": "3023"
	},
	{
		"name": "Caroline Springs",
		"postcode": "3023"
	},
	{
		"name": "Cobblebank"
	},
	{
		"name": "Deanside"
	},
	{
		"name": "Diggers Rest",
		"postcode": "3427"
	},
	{
		"name": "The Gap"
	},
	{
		"name": "Exford",
		"postcode": "3338"
	},
	{
		"name": "Eynesbury",
		"postcode": "3338"
	},
	{
		"name": "Fieldstone"
	},
	{
		"name": "Fraser Rise"
	},
	{
		"name": "Grangefields"
	},
	{
		"name": "Harkness"
	},
	{
		"name": "Kurunjang",
		"postcode": "3337"
	},
	{
		"name": "Melton",
		"postcode": "3337"
	},
	{
		"name": "Melton South",
		"postcode": "3338"
	},
	{
		"name": "Melton West",
		"postcode": "3337"
	},
	{
		"name": "Westmelton"
	},
	{
		"name": "Mount Cottrell",
		"postcode": "3024"
	},
	{
		"name": "Chartwell"
	},
	{
		"name": "Parwan",
		"postcode": "3340"
	},
	{
		"name": "Plumpton",
		"postcode": "3335"
	},
	{
		"name": "Sydenham West"
	},
	{
		"name": "Ravenhall",
		"postcode": "3023"
	},
	{
		"name": "Rockbank",
		"postcode": "3335"
	},
	{
		"name": "Strathtulloh"
	},
	{
		"name": "Taylors Hill"
	},
	{
		"name": "Thornhill Park"
	},
	{
		"name": "Toolern Vale",
		"postcode": "3337"
	},
	{
		"name": "Truganina",
		"postcode": "3029"
	},
	{
		"name": "Weir Views"
	},
	{
		"name": "Hoppers Crossing",
		"postcode": "3029"
	},
	{
		"name": "Laverton West"
	},
	{
		"name": "Laverton",
		"postcode": "3028"
	},
	{
		"name": "Laverton North",
		"postcode": "3026"
	},
	{
		"name": "Manor Lakes",
		"postcode": "3024"
	},
	{
		"name": "Point Cook",
		"postcode": "3030"
	},
	{
		"name": "Sanctuary Lakes"
	},
	{
		"name": "Tarneit",
		"postcode": "3029"
	},
	{
		"name": "Truganina",
		"postcode": "3029"
	},
	{
		"name": "Werribee",
		"postcode": "3030"
	},
	{
		"name": "Brophys Crossing"
	},
	{
		"name": "Mossfield"
	},
	{
		"name": "Werribee South",
		"postcode": "3030"
	},
	{
		"name": "Williams Landing",
		"postcode": "3027"
	},
	{
		"name": "Williams RAAF"
	},
	{
		"name": "Wyndham Vale",
		"postcode": "3024"
	}
]
